CTC1_L_00156016-03
1 10512U 25013KJ  26037.47802083  .00000000  00000+0  00000-0 0  9999
2 10512 100.0000 180.0000 0000000   0.0000   0.0000 14.06899548    16
CTC1_L_00156016-04
1 10513U 22070TB  26037.47802083  .00000000  00000+0  00000-0 0  9990
2 10513 100.0000 180.0000 0000000   0.0000  90.0000 14.06899548    16
CTC1_L_00156017-01
1 10514U 26256MQ  26037.47802083  .00000000  00000+0  00000-0 0  9991
2 10514 100.0000 192.0000 0000000   0.0000 192.0000 14.06899548    13
CTC1_L_00156017-02
1 10515U 24551OB  26037.47802083  .00000000  00000+0  00000-0 0  9998
2 10515 100.0000 192.0000 0000000   0.0000 282.0000 14.06899548    14
CTC1_L_00156017-03
1 10516U 23735TZ  26037.47802083  .00000000  00000+0  00000-0 0  9992
2 10516 100.0000 192.0000 0000000   0.0000  12.0000 14.06899548    16
CTC1_L_00156017-04
1 10517U 25474EQ  26037.47802083  .00000000  00000+0  00000-0 0  9995
2 10517 100.0000 192.0000 0000000   0.0000 102.0000 14.06899548    17
CTC1_L_00156018-01
1 10518U 24216MP  26037.47802083  .00000000  00000+0  00000-0 0  9999
2 10518 100.0000 204.0000 0000000   0.0000 204.0000 14.06899548    15
CTC1_L_00156018-02
1 10519U 22321AA  26037.47802083  .00000000  00000+0  00000-0 0  9995
2 10519 100.0000 204.0000 0000000   0.0000 294.0000 14.06899548    15
CTC1_L_00156018-03
1 10520U 26292RS  26037.47802083  .00000000  00000+0  00000-0 0  9998
2 10520 100.0000 204.0000 0000000   0.0000  24.0000 14.06899548    18
CTC1_L_00156018-04
1 10521U 26400BD  26037.47802083  .00000000  00000+0  00000-0 0  9990
2 10521 100.0000 204.0000 0000000   0.0000 114.0000 14.06899548    19
CTC1_L_00156019-01
1 10522U 25076CL  26037.47802083  .00000000  00000+0  00000-0 0  9999
2 10522 100.0000 216.0000 0000000   0.0000 216.0000 14.06899548    16
CTC1_L_00156019-02
1 10523U 23075EO  26037.47802083  .00000000  00000+0  00000-0 0  9997
2 10523 100.0000 216.0000 0000000   0.0000 306.0000 14.06899548    17
CTC1_L_00156019-03
1 10524U 26542KI  26037.47802083  .00000000  00000+0  00000-0 0  9990
2 10524 100.0000 216.0000 0000000   0.0000  36.0000 14.06899548    18
CTC1_L_00156019-04
1 10525U 23321DY  26037.47802083  .00000000  00000+0  00000-0 0  9993
2 10525 100.0000 216.0000 0000000   0.0000 126.0000 14.06899548    19
CTC1_L_00156020-01
1 10526U 24892JB  26037.47802083  .00000000  00000+0  00000-0 0  9998
2 10526 100.0000 228.0000 0000000   0.0000 228.0000 14.06899548    16
CTC1_L_00156020-02
1 10527U 25390OX  26037.47802083  .00000000  00000+0  00000-0 0  9993
2 10527 100.0000 228.0000 0000000   0.0000 318.0000 14.06899548    17
CTC1_L_00156020-03
1 10528U 24531KS  26037.47802083  .00000000  00000+0  00000-0 0  9990
2 10528 100.0000 228.0000 0000000   0.0000  48.0000 14.06899548    18
CTC1_L_00156020-04
1 10529U 23568FC  26037.47802083  .00000000  00000+0  00000-0 0  9990
2 10529 100.0000 228.0000 0000000   0.0000 138.0000 14.06899548    19
CTC1_L_00156021-01
1 10530U 25136F   26037.47802083  .00000000  00000+0  00000-0 0  9995
2 10530 100.0000 240.0000 0000000   0.0000 240.0000 14.06899548    19
CTC1_L_00156021-02
1 10531U 25518EW  26037.47802083  .00000000  00000+0  00000-0 0  9990
2 10531 100.0000 240.0000 0000000   0.0000 330.0000 14.06899548    10
CTC1_L_00156021-03
1 10532U 26169XD  26037.47802083  .00000000  00000+0  00000-0 0  9994
2 10532 100.0000 240.0000 0000000   0.0000  60.0000 14.06899548    11
CTC1_L_00156021-04
1 10533U 25161XS  26037.47802083  .00000000  00000+0  00000-0 0  9996
2 10533 100.0000 240.0000 0000000   0.0000 150.0000 14.06899548    12
CTC1_L_00156022-01
1 10534U 22636K   26037.47802083  .00000000  00000+0  00000-0 0  9991
2 10534 100.0000 252.0000 0000000   0.0000 252.0000 14.06899548    19
CTC1_L_00156022-02
1 10535U 25154LW  26037.47802083  .00000000  00000+0  00000-0 0  9990
2 10535 100.0000 252.0000 0000000   0.0000 342.0000 14.06899548    10
CTC1_L_00156022-03
1 10536U 24981LL  26037.47802083  .00000000  00000+0  00000-0 0  9998
2 10536 100.0000 252.0000 0000000   0.0000  72.0000 14.06899548    11
CTC1_L_00156022-04
1 10537U 25922KV  26037.47802083  .00000000  00000+0  00000-0 0  9995
2 10537 100.0000 252.0000 0000000   0.0000 162.0000 14.06899548    12
CTC1_L_00156023-01
1 10538U 23833ND  26037.47802083  .00000000  00000+0  00000-0 0  9995
2 10538 100.0000 264.0000 0000000   0.0000 264.0000 14.06899548    19
CTC1_L_00156023-02
1 10539U 26452SL  26037.47802083  .00000000  00000+0  00000-0 0  9996
2 10539 100.0000 264.0000 0000000   0.0000 354.0000 14.06899548    10
CTC1_L_00156023-03
1 10540U 22039FR  26037.47802083  .00000000  00000+0  00000-0 0  9995
2 10540 100.0000 264.0000 0000000   0.0000  84.0000 14.06899548    12
CTC1_L_00156023-04
1 10541U 24743RY  26037.47802083  .00000000  00000+0  00000-0 0  9990
2 10541 100.0000 264.0000 0000000   0.0000 174.0000 14.06899548    13
CTC1_L_00156024-01
1 10542U 24260DW  26037.47802083  .00000000  00000+0  00000-0 0  9995
2 10542 100.0000 276.0000 0000000   0.0000 276.0000 14.06899548    10
CTC1_L_00156024-02
1 10543U 22011WO  26037.47802083  .00000000  00000+0  00000-0 0  9998
2 10543 100.0000 276.0000 0000000   0.0000   6.0000 14.06899548    12
CTC1_L_00156024-03
1 10544U 22810VN  26037.47802083  .00000000  00000+0  00000-0 0  9996
2 10544 100.0000 276.0000 0000000   0.0000  96.0000 14.06899548    12
CTC1_L_00156024-04
1 10545U 24195KV  26037.47802083  .00000000  00000+0  00000-0 0  9995
2 10545 100.0000 276.0000 0000000   0.0000 186.0000 14.06899548    13
CTC1_L_00156025-01
1 10546U 23752BM  26037.47802083  .00000000  00000+0  00000-0 0  9994
2 10546 100.0000 288.0000 0000000   0.0000 288.0000 14.06899548    10
CTC1_L_00156025-02
1 10547U 23311CF  26037.47802083  .00000000  00000+0  00000-0 0  9996
2 10547 100.0000 288.0000 0000000   0.0000  18.0000 14.06899548    12
CTC1_L_00156025-03
1 10548U 25422BA  26037.47802083  .00000000  00000+0  00000-0 0  9992
2 10548 100.0000 288.0000 0000000   0.0000 108.0000 14.06899548    13
CTC1_L_00156025-04
1 10549U 22069NI  26037.47802083  .00000000  00000+0  00000-0 0  9997
2 10549 100.0000 288.0000 0000000   0.0000 198.0000 14.06899548    13
CTC1_L_00156026-01
1 10550U 22713O   26037.47802083  .00000000  00000+0  00000-0 0  9995
2 10550 100.0000 300.0000 0000000   0.0000 300.0000 14.06899548    15
CTC1_L_00156026-02
1 10551U 22383QC  26037.47802083  .00000000  00000+0  00000-0 0  9999
2 10551 100.0000 300.0000 0000000   0.0000  30.0000 14.06899548    16
CTC1_L_00156026-03
1 10552U 23759TM  26037.47802083  .00000000  00000+0  00000-0 0  9998
2 10552 100.0000 300.0000 0000000   0.0000 120.0000 14.06899548    17
CTC1_L_00156026-04
1 10553U 25622AQ  26037.47802083  .00000000  00000+0  00000-0 0  9990
2 10553 100.0000 300.0000 0000000   0.0000 210.0000 14.06899548    18
CTC1_L_00156027-01
1 10554U 22044HB  26037.47802083  .00000000  00000+0  00000-0 0  9996
2 10554 100.0000 312.0000 0000000   0.0000 312.0000 14.06899548    15
CTC1_L_00156027-02
1 10555U 26380TB  26037.47802083  .00000000  00000+0  00000-0 0  9994
2 10555 100.0000 312.0000 0000000   0.0000  42.0000 14.06899548    16
CTC1_L_00156027-03
1 10556U 22463WR  26037.47802083  .00000000  00000+0  00000-0 0  9993
2 10556 100.0000 312.0000 0000000   0.0000 132.0000 14.06899548    17
CTC1_L_00156027-04
1 10557U 24693WG  26037.47802083  .00000000  00000+0  00000-0 0  9991
2 10557 100.0000 312.0000 0000000   0.0000 222.0000 14.06899548    18
CTC1_L_00156028-01
1 10558U 25934TS  26037.47802083  .00000000  00000+0  00000-0 0  9991
2 10558 100.0000 324.0000 0000000   0.0000 324.0000 14.06899548    15
CTC1_L_00156028-02
1 10559U 25802YY  26037.47802083  .00000000  00000+0  00000-0 0  9996
2 10559 100.0000 324.0000 0000000   0.0000  54.0000 14.06899548    16
CTC1_L_00156028-03
1 10560U 25229SK  26037.47802083  .00000000  00000+0  00000-0 0  9991
2 10560 100.0000 324.0000 0000000   0.0000 144.0000 14.06899548    18
CTC1_L_00156028-04
1 10561U 25722VC  26037.47802083  .00000000  00000+0  00000-0 0  9990
2 10561 100.0000 324.0000 0000000   0.0000 234.0000 14.06899548    19
CTC1_L_00156029-01
1 10562U 24254LF  26037.47802083  .00000000  00000+0  00000-0 0  9990
2 10562 100.0000 336.0000 0000000   0.0000 336.0000 14.06899548    16
CTC1_L_00156029-02
1 10563U 22163UL  26037.47802083  .00000000  00000+0  00000-0 0  9998
2 10563 100.0000 336.0000 0000000   0.0000  66.0000 14.06899548    17
CTC1_L_00156029-03
1 10564U 23820BW  26037.47802083  .00000000  00000+0  00000-0 0  9990
2 10564 100.0000 336.0000 0000000   0.0000 156.0000 14.06899548    18
CTC1_L_00156029-04
1 10565U 22578PA  26037.47802083  .00000000  00000+0  00000-0 0  9990
2 10565 100.0000 336.0000 0000000   0.0000 246.0000 14.06899548    19
CTC1_L_00156030-01
1 10566U 22066WE  26037.47802083  .00000000  00000+0  00000-0 0  9993
2 10566 100.0000 348.0000 0000000   0.0000 348.0000 14.06899548    16
CTC1_L_00156030-02
1 10567U 23557FK  26037.47802083  .00000000  00000+0  00000-0 0  9990
2 10567 100.0000 348.0000 0000000   0.0000  78.0000 14.06899548    17
CTC1_L_00156030-03
1 10568U 22901IZ  26037.47802083  .00000000  00000+0  00000-0 0  9993
2 10568 100.0000 348.0000 0000000   0.0000 168.0000 14.06899548    18
CTC1_L_00156030-04
1 10569U 24480LR  26037.47802083  .00000000  00000+0  00000-0 0  9998
2 10569 100.0000 348.0000 0000000   0.0000 258.0000 14.06899548    19
